NORAD_CAT_ID,OBJECT_NAME,OBJECT_TYPE,EPOCH,MEAN_MOTION,ECCENTRICITY,INCLINATION,RA_OF_ASC_NODE,ARG_OF_PERICENTER,MEAN_ANOMALY,BSTAR,MEAN_MOTION_DOT,MEAN_MOTION_DDOT,TLE_LINE0,TLE_LINE1,TLE_LINE2,SEMIMAJOR_AXIS,PERIOD,APOGEE,PERIGEE,DECAYED
52704.0,STARLINK-3999,PAYLOAD,2022-09-12 04:00:00,15.08870774,0.0001841,53.2152,95.679,44.1589,329.6668,-0.0042327,-0.00067082,0.0,0 STARLINK-3999,1 52704U 22053BA  22255.16667824 -.00067082  00000-0 -42327-2 0  9991,2 52704  53.2152  95.6790 0001841  44.1589 329.6668 15.08870774 18476,6917.786,95.436,540.925,538.378,0.0
52704.0,STARLINK-3999,PAYLOAD,2022-09-12 12:00:00,15.08809729,0.0001695,53.2156,94.1811,49.6173,335.8169,0.00303,0.00048225,0.0,0 STARLINK-3999,1 52704U 22053BA  22255.50001157  .00048225  00000-0  30300-2 0  9994,2 52704  53.2156  94.1811 0001695  49.6173 335.8169 15.08809729 18527,6917.973000000001,95.439,541.011,538.665,0.0
52704.0,STARLINK-3999,PAYLOAD,2022-09-12 14:00:01,15.08832087,0.0001725,53.2158,93.8072,50.1106,68.2105,0.00096678,0.00015128,0.0,0 STARLINK-3999,1 52704U 22053BA  22255.58334491  .00015128  00000-0  96678-3 0  9999,2 52704  53.2158  93.8072 0001725  50.1106  68.2105 15.08832087  1309,6917.905,95.438,540.9630000000002,538.576,0.0
52704.0,STARLINK-3999,PAYLOAD,2022-09-12 22:00:00,15.08826161,0.0001908,53.2159,92.312,43.9982,85.9187,0.0017259,0.00027276,0.0,0 STARLINK-3999,1 52704U 22053BA  22255.91667824  .00027276  00000-0  17259-2 0  9999,2 52704  53.2159  92.3120 0001908  43.9982  85.9187 15.08826161  1305,6917.9230000000025,95.438,541.1080000000002,538.4680000000002,0.0
52704.0,STARLINK-3999,PAYLOAD,2022-09-13 06:00:00,15.08857711,0.0001733,53.216,90.8148,44.4177,97.095,-0.0030366,-0.00048315,0.0,0 STARLINK-3999,1 52704U 22053BA  22256.25001157 -.00048315  00000-0 -30366-2 0  9991,2 52704  53.2160  90.8148 0001733  44.4177  97.0950 15.08857711 18640,6917.826,95.436,540.89,538.492,0.0
52704.0,STARLINK-3999,PAYLOAD,2022-09-13 14:00:01,15.08839726,0.0001676999999999,53.2164,89.3179,47.8204,105.2837,0.00069565,0.00010801,0.0,0 STARLINK-3999,1 52704U 22053BA  22256.58334491  .00010801  00000-0  69565-3 0  9998,2 52704  53.2164  89.3179 0001677  47.8204 105.2837 15.08839726  1303,6917.880999999999,95.438,540.906,538.586,0.0
52704.0,STARLINK-3999,PAYLOAD,2022-09-13 16:00:00,15.08850849,0.0001705,53.2167,88.9438,46.1565,199.8445,-0.00073709,-0.00012003,0.0,0 STARLINK-3999,1 52704U 22053BA  22256.66667824 -.00012003  00000-0 -73709-3 0  9999,2 52704  53.2167  88.9438 0001705  46.1565 199.8445 15.08850849 18708,6917.847,95.437,540.8919999999998,538.533,0.0
52704.0,STARLINK-3999,PAYLOAD,2022-09-13 22:00:00,15.08834105,0.0001841999999999,53.2165,87.8231,40.9463,123.749,-8.4313e-06,-4.22e-06,0.0,0 STARLINK-3999,1 52704U 22053BA  22256.91667824 -.00000422  00000-0 -84313-5 0  9994,2 52704  53.2165  87.8231 0001842  40.9463 123.7490 15.08834105  1307,6917.898,95.438,541.038,538.489,0.0
52704.0,STARLINK-3999,PAYLOAD,2022-09-14 14:00:01,15.08831874,0.0001599,53.2169,84.8289,45.4117,142.4408,5.459100000000001e-05,5.81e-06,0.0,0 STARLINK-3999,1 52704U 22053BA  22257.58334491  .00000581  00000-0  54591-4 0  9997,2 52704  53.2169  84.8289 0001599  45.4117 142.4408 15.08831874  1303,6917.905,95.438,540.876,538.664,0.0
52704.0,STARLINK-3999,PAYLOAD,2022-09-14 22:00:00,15.08812999,0.0001801,53.2168,83.3341,38.9857,160.4592,0.0026785999999999,0.00042568,0.0,0 STARLINK-3999,1 52704U 22053BA  22257.91667824  .00042568  00000-0  26786-2 0  9997,2 52704  53.2168  83.3341 0001801  38.9857 160.4592 15.08812999 18892,6917.9630000000025,95.439,541.0740000000002,538.582,0.0
52704.0,STARLINK-3999,PAYLOAD,2022-09-15 14:00:01,15.08859485,0.0001661,53.217,80.3401,47.7388,174.8815,-0.0027248,-0.00043415,0.0,0 STARLINK-3999,1 52704U 22053BA  22258.58334491 -.00043415  00000-0 -27248-2 0  9990,2 52704  53.2170  80.3401 0001661  47.7388 174.8815 15.08859485  1306,6917.821,95.436,540.835,538.5369999999998,0.0
52704.0,STARLINK-3999,PAYLOAD,2022-09-15 19:22:35,15.08837749,0.0001686999999999,53.217,79.3343,48.585,311.5287,0.00011068,1.474e-05,0.0,0 STARLINK-3999,1 52704U 22053BA  22258.80736061  .00001474  00000-0  11068-3 0  9995,2 52704  53.2170  79.3343 0001687  48.5850 311.5287 15.08837749 19457,6917.887,95.438,540.919,538.585,0.0
52704.0,STARLINK-3999,PAYLOAD,2022-09-16 11:16:28,15.08828355,0.0001766999999999,53.2175,76.3616,41.7117,318.4009,0.00011522,1.546e-05,0.0,0 STARLINK-3999,1 52704U 22053BA  22259.46977044  .00001546  00000-0  11522-3 0  9991,2 52704  53.2175  76.3616 0001767  41.7117 318.4009 15.08828355 19127,6917.916,95.438,541.003,538.559,0.0
52704.0,STARLINK-3999,PAYLOAD,2022-09-16 14:27:14,15.08831439,0.0001813,53.2175,75.7672,41.5708,318.5422,0.00013379,1.841e-05,0.0,0 STARLINK-3999,1 52704U 22053BA  22259.60224912  .00001841  00000-0  13379-3 0  9996,2 52704  53.2175  75.7672 0001813  41.5708 318.5422 15.08831439 19574,6917.906999999997,95.438,541.026,538.5169999999998,0.0
52704.0,STARLINK-3999,PAYLOAD,2022-09-17 11:07:15,15.08836484,0.0002079,53.218,71.9029,31.6578,328.4538,3.3645e-06,-2.35e-06,0.0,0 STARLINK-3999,1 52704U 22053BA  22260.46337246 -.00000235  00000-0  33645-5 0  9994,2 52704  53.2180  71.9029 0002079  31.6578 328.4538 15.08836484 19702,6917.891,95.438,541.194,538.318,0.0
52704.0,STARLINK-3999,PAYLOAD,2022-09-17 19:04:11,15.08834872,0.0001838,53.2176,70.4144,41.9225,318.1907,-1.6266e-05,-5.47e-06,0.0,0 STARLINK-3999,1 52704U 22053BA  22260.79457421 -.00000547  00000-0 -16266-4 0  9994,2 52704  53.2176  70.4144 0001838  41.9225 318.1907 15.08834872 19327,6917.896,95.438,541.033,538.49,0.0
52704.0,STARLINK-3999,PAYLOAD,2022-09-18 10:58:02,15.08840651,0.0001712,53.2178,67.4403,44.074,316.0388,7.6344e-05,9.27e-06,0.0,0 STARLINK-3999,1 52704U 22053BA  22261.45696956  .00000927  00000-0  76344-4 0  9999,2 52704  53.2178  67.4403 0001712  44.0740 316.0388 15.08840651 19423,6917.878000000002,95.438,540.928,538.559,0.0
52704.0,STARLINK-3999,PAYLOAD,2022-09-18 17:19:34,15.08843622,0.0001747,53.2178,66.2507,44.8894,315.2239,9.7521e-05,1.264e-05,0.0,0 STARLINK-3999,1 52704U 22053BA  22261.72192705  .00001264  00000-0  97521-4 0  9997,2 52704  53.2178  66.2507 0001747  44.8894 315.2239 15.08843622 19899,6917.869000000002,95.437,540.943,538.526,0.0
52704.0,STARLINK-3999,PAYLOAD,2022-09-19 06:02:38,15.08847058,0.0001799,53.2178,63.8718,46.0062,314.1078,0.00020175,2.925e-05,0.0,0 STARLINK-3999,1 52704U 22053BA  22262.25183952  .00002925  00000-0  20175-3 0  9995,2 52704  53.2178  63.8718 0001799  46.0062 314.1078 15.08847058 19542,6917.859,95.437,540.9680000000002,538.479,0.0
52704.0,STARLINK-3999,PAYLOAD,2022-09-19 12:24:12,15.08834769,0.0001799,53.2178,62.6823,46.4726,313.6415,8.8396e-05,1.119e-05,0.0,0 STARLINK-3999,1 52704U 22053BA  22262.51681059  .00001119  00000-0  88396-4 0  9999,2 52704  53.2178  62.6823 0001799  46.4726 313.6415 15.08834769 19585,6917.896,95.438,541.006,538.5169999999998,0.0
52704.0,STARLINK-3999,PAYLOAD,2022-09-20 10:39:35,15.08847448,0.0001798,53.2179,58.519,47.5975,312.5169,5.6526e-05,6.12e-06,0.0,0 STARLINK-3999,1 52704U 22053BA  22263.44416212  .00000612  00000-0  56526-4 0  9996,2 52704  53.2179  58.5190 0001798  47.5975 312.5169 15.08847448 20151,6917.858,95.437,540.966,538.479,0.0
52704.0,STARLINK-3999,PAYLOAD,2022-09-20 13:50:22,15.08841926,0.0001652,53.2178,57.9235,48.7137,311.3998,1.0607e-05,-1.19e-06,0.0,0 STARLINK-3999,1 52704U 22053BA  22263.57664582 -.00000119  00000-0  10607-4 0  9998,2 52704  53.2178  57.9235 0001652  48.7137 311.3998 15.08841926 20179,6917.875,95.437,540.882,538.597,0.0
52704.0,STARLINK-3999,PAYLOAD,2022-09-21 12:05:47,15.08827483,0.0001554,53.2177,53.7601,50.6351,309.4778,-9.712e-05,-1.833e-05,0.0,0 STARLINK-3999,1 52704U 22053BA  22264.50401749 -.00001833  00000-0 -97120-4 0  9996,2 52704  53.2177  53.7601 0001554  50.6351 309.4778 15.08827483 19882,6917.919,95.438,540.859,538.7090000000002,0.0
52704.0,STARLINK-3999,PAYLOAD,2022-09-22 13:31:56,15.08836654,0.0001575999999999,53.2181,49.0029,42.3439,317.7675,3.5231e-05,2.73e-06,0.0,0 STARLINK-3999,1 52704U 22053BA  22265.56385301  .00000273  00000-0  35231-4 0  9998,2 52704  53.2181  49.0029 0001576  42.3439 317.7675 15.08836654 20046,6917.891,95.438,540.846,538.665,0.0
52704.0,STARLINK-3999,PAYLOAD,2022-09-23 13:22:44,15.08826797,0.0001831999999999,53.2183,44.5431,37.696,322.4161,8.5974e-05,1.0800000000000003e-05,0.0,0 STARLINK-3999,1 52704U 22053BA  22266.55746083  .00001080  00000-0  85974-4 0  9992,2 52704  53.2183  44.5431 0001832  37.6960 322.4161 15.08826797 20620,6917.920999999999,95.438,541.053,538.518,0.0
52704.0,STARLINK-3999,PAYLOAD,2022-09-23 14:58:07,15.0882706,0.0001928,53.2184,44.2464,34.4132,325.6985,8.450100000000001e-05,1.057e-05,0.0,0 STARLINK-3999,1 52704U 22053BA  22266.62370156  .00001057  00000-0  84501-4 0  9993,2 52704  53.2184  44.2464 0001928  34.4132 325.6985 15.08827060 20203,6917.92,95.438,541.119,538.451,0.0
52704.0,STARLINK-3999,PAYLOAD,2022-09-24 13:13:30,15.08850258,0.0002002,53.2189,40.0838,34.543,325.5691,0.00013454,1.854e-05,0.0,0 STARLINK-3999,1 52704U 22053BA  22267.55104580  .00001854  00000-0  13454-3 0  9995,2 52704  53.2189  40.0838 0002002  34.5430 325.5691 15.08850258 20773,6917.849,95.437,541.099,538.3290000000002,0.0
52704.0,STARLINK-3999,PAYLOAD,2022-09-24 16:24:16,15.0885888,0.0002068,53.2186,39.4886,31.6955,328.4162,0.00011444,1.534e-05,0.0,0 STARLINK-3999,1 52704U 22053BA  22267.68352034  .00001534  00000-0  11444-3 0  9990,2 52704  53.2186  39.4886 0002068  31.6955 328.4162 15.08858880 20793,6917.823,95.436,541.118,538.257,0.0
52704.0,STARLINK-3999,PAYLOAD,2022-09-25 03:31:58,15.08846372,0.0002245,53.2185,37.4094,42.2543,317.8622,0.00011385,1.524e-05,0.0,0 STARLINK-3999,1 52704U 22053BA  22268.14720622  .00001524  00000-0  11385-3 0  9997,2 52704  53.2185  37.4094 0002245  42.2543 317.8622 15.08846372 20436,6917.861,95.437,541.279,538.173,0.0
